NORAD_CAT_ID,OBJECT_NAME,OBJECT_TYPE,EPOCH,MEAN_MOTION,ECCENTRICITY,INCLINATION,RA_OF_ASC_NODE,ARG_OF_PERICENTER,MEAN_ANOMALY,BSTAR,MEAN_MOTION_DOT,MEAN_MOTION_DDOT,TLE_LINE0,TLE_LINE1,TLE_LINE2,SEMIMAJOR_AXIS,PERIOD,APOGEE,PERIGEE,DECAYED
52866.0,STARLINK-4272,PAYLOAD,2024-07-15 11:22:52,15.08840642,0.000135,53.2155,207.5731,87.7247,272.39,4.0276e-05,3.53e-06,0.0,0 STARLINK-4272,1 52866U 22062AN  24197.47421399  .00000353  00000-0  40276-4 0  9995,2 52866  53.2155 207.5731 0001350  87.7247 272.3900 15.08840642115502,6917.878,95.438,540.677,538.81,0.0
52866.0,STARLINK-4272,PAYLOAD,2024-07-15 17:44:24,15.08838278,0.0001345,53.2156,206.3838,89.1759,270.9387,3.242e-05,2.28e-06,0.0,0 STARLINK-4272,1 52866U 22062AN  24197.73917592  .00000228  00000-0  32420-4 0  9992,2 52866  53.2156 206.3838 0001345  89.1759 270.9387 15.08838278115051,6917.886,95.438,540.681,538.82,0.0
52866.0,STARLINK-4272,PAYLOAD,2024-07-16 08:02:52,15.08841471,0.0001338,53.2155,203.707,89.7227,270.3919,5.9857e-05,6.65e-06,0.0,0 STARLINK-4272,1 52866U 22062AN  24198.33533322  .00000665  00000-0  59857-4 0  9992,2 52866  53.2155 203.7070 0001338  89.7227 270.3919 15.08841471115141,6917.876,95.437,540.667,538.815,0.0
52866.0,STARLINK-4272,PAYLOAD,2024-07-17 06:18:16,15.08838981,0.0001351,53.2155,199.5429,90.0815,270.0332,7.4764e-05,9.02e-06,0.0,0 STARLINK-4272,1 52866U 22062AN  24199.26269478  .00000902  00000-0  74764-4 0  9991,2 52866  53.2155 199.5429 0001351  90.0815 270.0332 15.08838981115771,6917.884,95.438,540.683,538.814,0.0
52866.0,STARLINK-4272,PAYLOAD,2024-07-17 09:29:02,15.08842348,0.0001356,53.2157,198.9475,89.8439,270.2708,7.1645e-05,8.53e-06,0.0,0 STARLINK-4272,1 52866U 22062AN  24199.39517269  .00000853  00000-0  71645-4 0  9999,2 52866  53.2157 198.9475 0001356  89.8439 270.2708 15.08842348115300,6917.873,95.437,540.676,538.8,0.0
52866.0,STARLINK-4272,PAYLOAD,2024-07-18 09:19:49,15.08843359,0.0001393,53.216,194.4863,94.9003,265.2149,5.5589e-05,5.97e-06,0.0,0 STARLINK-4272,1 52866U 22062AN  24200.38877283  .00000597  00000-0  55589-4 0  9990,2 52866  53.2160 194.4863 0001393  94.9003 265.2149 15.08843359115947,6917.87,95.437,540.699,538.771,0.0
52866.0,STARLINK-4272,PAYLOAD,2024-07-18 17:16:45,15.08839089,0.0001369,53.216,192.9989,95.7006,264.4142,3.7325e-05,3.06e-06,0.0,0 STARLINK-4272,1 52866U 22062AN  24200.71997602  .00000306  00000-0  37325-4 0  9991,2 52866  53.2160 192.9989 0001369  95.7006 264.4142 15.08839089115505,6917.883,95.438,540.695,538.801,0.0
52866.0,STARLINK-4272,PAYLOAD,2024-07-19 04:24:28,15.08838046,0.0001414,53.2163,190.9174,97.3888,262.7264,1.4371e-05,-5.9e-07,0.0,0 STARLINK-4272,1 52866U 22062AN  24201.18365808 -.00000059  00000-0  14371-4 0  9992,2 52866  53.2163 190.9174 0001414  97.3888 262.7264 15.08838046116069,6917.886,95.438,540.73,538.773,0.0
52866.0,STARLINK-4272,PAYLOAD,2024-07-19 10:46:00,15.08841576,0.0001417,53.2163,189.7287,95.7026,264.4128,3.9069e-05,3.34e-06,0.0,0 STARLINK-4272,1 52866U 22062AN  24201.44861515  .00000334  00000-0  39069-4 0  9993,2 52866  53.2163 189.7287 0001417  95.7026 264.4128 15.08841576115619,6917.876,95.437,540.721,538.76,0.0
52866.0,STARLINK-4272,PAYLOAD,2024-07-20 05:50:37,15.0884189,0.0001385,53.216,186.1616,90.4889,269.6262,5.0958e-05,5.23e-06,0.0,0 STARLINK-4272,1 52866U 22062AN  24202.24349461  .00000523  00000-0  50958-4 0  9993,2 52866  53.2160 186.1616 0001385  90.4889 269.6262 15.08841890116229,6917.875,95.437,540.698,538.781,0.0
52866.0,STARLINK-4272,PAYLOAD,2024-07-20 09:01:24,15.08843362,0.0001397,53.216,185.5668,90.615,269.5003,6.268e-05,7.1e-06,0.0,0 STARLINK-4272,1 52866U 22062AN  24202.37597312  .00000710  00000-0  62680-4 0  9990,2 52866  53.2160 185.5668 0001397  90.6150 269.5003 15.08843362115750,6917.87,95.437,540.702,538.769,0.0
52866.0,STARLINK-4272,PAYLOAD,2024-07-20 15:22:56,15.0884082,0.0001434,53.2165,184.3768,89.814,270.3017,-1.7036e-05,-5.59e-06,0.0,0 STARLINK-4272,1 52866U 22062AN  24202.64093737 -.00000559  00000-0 -17036-4 0  9990,2 52866  53.2165 184.3768 0001434  89.8140 270.3017 15.08840820115799,6917.878,95.438,540.735,538.751,0.0
52866.0,STARLINK-4272,PAYLOAD,2024-07-21 05:41:25,15.0883701,0.0001278,53.2159,181.7012,89.6766,270.4373,7.3638e-05,8.84e-06,0.0,0 STARLINK-4272,1 52866U 22062AN  24203.23709871  .00000884  00000-0  73638-4 0  9998,2 52866  53.2159 181.7012 0001278  89.6766 270.4373 15.08837010116371,6917.89,95.438,540.639,538.87,0.0
52866.0,STARLINK-4272,PAYLOAD,2024-07-22 07:07:35,15.0883887,0.0001271,53.2163,176.9443,89.9093,270.2045,-4.8001e-06,-3.64e-06,0.0,0 STARLINK-4272,1 52866U 22062AN  24204.29694350 -.00000364  00000-0 -48001-5 0  9992,2 52866  53.2163 176.9443 0001271  89.9093 270.2045 15.08838870116536,6917.884,95.438,540.628,538.87,0.0
52866.0,STARLINK-4272,PAYLOAD,2024-07-23 14:55:18,15.08842061,0.0001178,53.2165,170.996,84.4216,275.6911,2.1736e-05,5.8e-07,0.0,0 STARLINK-4272,1 52866U 22062AN  24205.62174071  .00000058  00000-0  21736-4 0  9996,2 52866  53.2165 170.9960 0001178  84.4216 275.6911 15.08842061116245,6917.874,95.437,540.554,538.924,0.0
52866.0,STARLINK-4272,PAYLOAD,2024-07-24 05:13:48,15.08828306,0.000147,53.2158,168.3196,80.8908,279.225,-3.0509e-05,-7.73e-06,0.0,0 STARLINK-4272,1 52866U 22062AN  24206.21791671 -.00000773  00000-0 -30509-4 0  9997,2 52866  53.2158 168.3196 0001470  80.8908 279.2250 15.08828306116828,6917.916,95.438,540.798,538.764,0.0
52866.0,STARLINK-4272,PAYLOAD,2024-07-24 21:07:38,15.08847869,0.0001327,53.2163,165.342,94.0403,266.0741,-4.2016e-05,-9.57e-06,0.0,0 STARLINK-4272,1 52866U 22062AN  24206.88030639 -.00000957  00000-0 -42016-4 0  9990,2 52866  53.2163 165.3420 0001327  94.0403 266.0741 15.08847869116924,6917.856,95.437,540.639,538.803,0.0
52866.0,STARLINK-4272,PAYLOAD,2024-07-25 03:29:10,15.08855518,0.0001315,53.2159,164.1585,94.3868,265.7275,3.4756e-05,2.65e-06,0.0,0 STARLINK-4272,1 52866U 22062AN  24207.14525719  .00000265  00000-0  34756-4 0  9990,2 52866  53.2159 164.1585 0001315  94.3868 265.7275 15.08855518116965,6917.833,95.437,540.608,538.788,0.0
52866.0,STARLINK-4272,PAYLOAD,2024-07-25 06:39:56,15.08861099,0.0001392,53.2162,163.5622,82.1568,277.9582,9.2821e-05,1.19e-05,0.0,0 STARLINK-4272,1 52866U 22062AN  24207.27773158  .00001190  00000-0  92821-4 0  9991,2 52866  53.2162 163.5622 0001392  82.1568 277.9582 15.08861099116496,6917.816,95.436,540.644,538.718,0.0
52866.0,STARLINK-4272,PAYLOAD,2024-07-25 20:58:26,15.08828535,0.0001635,53.2164,160.8879,75.8745,284.2429,0.00011398,1.526e-05,0.0,0 STARLINK-4272,1 52866U 22062AN  24207.87391265  .00001526  00000-0  11398-3 0  9994,2 52866  53.2164 160.8879 0001635  75.8745 284.2429 15.08828535117072,6917.915,95.438,540.912,538.649,0.0
52866.0,STARLINK-4272,PAYLOAD,2024-07-26 03:19:58,15.08834197,0.0001443,53.2153,159.6978,80.8481,279.2674,3.672e-05,2.96e-06,0.0,0 STARLINK-4272,1 52866U 22062AN  24208.13887246  .00000296  00000-0  36720-4 0  9993,2 52866  53.2153 159.6978 0001443  80.8481 279.2674 15.08834197116623,6917.898,95.438,540.761,538.765,0.0
52866.0,STARLINK-4272,PAYLOAD,2024-07-27 03:10:44,15.08856655,0.00015,53.2177,155.2358,92.2695,267.8469,4.132e-05,3.7e-06,0.0,0 STARLINK-4272,1 52866U 22062AN  24209.13245484  .00000370  00000-0  41320-4 0  9991,2 52866  53.2177 155.2358 0001500  92.2695 267.8469 15.08856655117260,6917.829,95.437,540.732,538.657,0.0
52866.0,STARLINK-4272,PAYLOAD,2024-07-28 03:01:32,15.08831422,0.0001315,53.2149,150.7687,96.2261,263.8881,2.3758e-05,9e-07,0.0,0 STARLINK-4272,1 52866U 22062AN  24210.12607112  .00000090  00000-0  23758-4 0  9996,2 52866  53.2149 150.7687 0001315  96.2261 263.8881 15.08831422117417,6917.907,95.438,540.681,538.862,0.0
52866.0,STARLINK-4272,PAYLOAD,2024-07-28 12:33:51,15.08830929,0.0001325,53.216,148.9892,91.1252,268.9892,2.1169e-05,4.9e-07,0.0,0 STARLINK-4272,1 52866U 22062AN  24210.52351545  .00000049  00000-0  21169-4 0  9994,2 52866  53.2160 148.9892 0001325  91.1252 268.9892 15.08830929116982,6917.908,95.438,540.69,538.856,0.0
52866.0,STARLINK-4272,PAYLOAD,2024-07-29 02:52:19,15.08875258,0.0001461,53.2167,146.3191,108.7708,251.3443,-0.00051576,-8.495e-05,0.0,0 STARLINK-4272,1 52866U 22062AN  24211.11966877 -.00008495  00000-0 -51576-3 0  9999,2 52866  53.2167 146.3191 0001461 108.7708 251.3443 15.08875258117562,6917.773,95.435,540.648,538.627,0.0
52866.0,STARLINK-4272,PAYLOAD,2024-07-29 12:24:37,15.088743,0.0001496,53.2171,144.5346,109.3928,250.7226,-0.00043191,-7.162e-05,0.0,0 STARLINK-4272,1 52866U 22062AN  24211.51709961 -.00007162  00000-0 -43191-3 0  9996,2 52866  53.2171 144.5346 0001496 109.3928 250.7226 15.08874300117130,6917.776,95.435,540.675,538.606,0.0
52866.0,STARLINK-4272,PAYLOAD,2024-07-30 02:43:07,15.08833576,0.000149,53.2173,141.8588,111.0252,249.0899,0.00013496,1.86e-05,0.0,0 STARLINK-4272,1 52866U 22062AN  24212.11327637  .00001860  00000-0  13496-3 0  9991,2 52866  53.2173 141.8588 0001490 111.0252 249.0899 15.08833576117715,6917.9,95.438,540.796,538.734,0.0
52866.0,STARLINK-4272,PAYLOAD,2024-07-30 12:15:25,15.08842907,0.0001482,53.2176,140.0741,102.338,257.7778,0.0001573,2.217e-05,0.0,0 STARLINK-4272,1 52866U 22062AN  24212.51071115  .00002217  00000-0  15730-3 0  9992,2 52866  53.2176 140.0741 0001482 102.3380 257.7778 15.08842907117772,6917.872,95.437,540.762,538.711,0.0
52866.0,STARLINK-4272,PAYLOAD,2024-07-30 23:23:07,15.08843256,0.000145,53.2172,137.9927,97.4395,262.6762,0.00014303,1.989e-05,0.0,0 STARLINK-4272,1 52866U 22062AN  24212.97439209  .00001989  00000-0  14303-3 0  9994,2 52866  53.2172 137.9927 0001450  97.4395 262.6762 15.08843256117354,6917.87,95.437,540.739,538.732,0.0
52866.0,STARLINK-4272,PAYLOAD,2024-07-31 12:06:13,15.08839499,0.0001593,53.2173,135.6136,85.2507,274.8667,3.299e-05,2.37e-06,0.0,0 STARLINK-4272,1 52866U 22062AN  24213.50431723  .00000237  00000-0  32990-4 0  9995,2 52866  53.2173 135.6136 0001593  85.2507 274.8667 15.08839499117926,6917.882,95.438,540.849,538.645,0.0
